start=new Date('2023-04-05T00:00:00.000Z').valueOf();
sats=[{"OBJECT_ID":"2022-005AC","SEMIMAJOR_AXIS":"6917.857","MEAN_MOTION_DDOT":"0.0000000000000","ECCENTRICITY":"0.00012210","EPOCH":"2023-04-04T07:21:13.762656","CENTER_NAME":"EARTH","NORAD_CAT_ID":"51130","COUNTRY_CODE":"US","SITE":"AFETR","OBJECT_TYPE":"PAYLOAD","ELEMENT_SET_NO":"999","LAUNCH_DATE":"2022-01-19","RCS_SIZE":"LARGE","REF_FRAME":"TEME","PERIOD":"95.437","TLE_LINE1":"1 51130U 22005AC  23094.30640929  .00004983  00000-0  33086-3 0  9997","DECAY_DATE":null,"EPHEMERIS_TYPE":"0","REV_AT_EPOCH":"6713","TLE_LINE2":"2 51130  53.2161  64.2523 0001221  98.3676 261.7455 15.08847638 67134","MEAN_ELEMENT_THEORY":"SGP4","CLASSIFICATION_TYPE":"U","INCLINATION":"53.2161","GP_ID":"229464929","TIME_SYSTEM":"UTC","BSTAR":"0.00033086000000","MEAN_MOTION_DOT":"0.00004983","RA_OF_ASC_NODE":"64.2523","MEAN_ANOMALY":"261.7455","ARG_OF_PERICENTER":"98.3676","FILE":"3879974","MEAN_MOTION":"15.08847638","APOAPSIS":"540.567","OBJECT_NAME":"STARLINK-3395","PERIAPSIS":"538.877"},{"MEAN_MOTION":"15.08850952","OBJECT_NAME":"STARLINK-3388","PERIAPSIS":"538.842","APOAPSIS":"540.582","RA_OF_ASC_NODE":"63.6917","MEAN_MOTION_DOT":"0.00002597","FILE":"3879974","MEAN_ANOMALY":"269.8072","ARG_OF_PERICENTER":"90.3064","INCLINATION":"53.2155","CLASSIFICATION_TYPE":"U","MEAN_ELEMENT_THEORY":"SGP4","TLE_LINE2":"2 51131  53.2155  63.6917 0001258  90.3064 269.8072 15.08850952 67150","BSTAR":"0.00018115000000","TIME_SYSTEM":"UTC","GP_ID":"229465680","DECAY_DATE":null,"EPHEMERIS_TYPE":"0","REV_AT_EPOCH":"6715","REF_FRAME":"TEME","RCS_SIZE":"LARGE","LAUNCH_DATE":"2022-01-19","TLE_LINE1":"1 51131U 22005AD  23094.43152507  .00002597  00000-0  18115-3 0  9997","PERIOD":"95.437","COUNTRY_CODE":"US","ELEMENT_SET_NO":"999","OBJECT_TYPE":"PAYLOAD","SITE":"AFETR","EPOCH":"2023-04-04T10:21:23.766048","CENTER_NAME":"EARTH","ECCENTRICITY":"0.00012580","MEAN_MOTION_DDOT":"0.0000000000000","SEMIMAJOR_AXIS":"6917.847","NORAD_CAT_ID":"51131","OBJECT_ID":"2022-005AD"},{"OBJECT_ID":"2022-005AE","EPOCH":"2023-04-04T07:15:55.571328","CENTER_NAME":"EARTH","ECCENTRICITY":"0.00013230","MEAN_MOTION_DDOT":"0.0000000000000","SEMIMAJOR_AXIS":"6917.851","NORAD_CAT_ID":"51132","COUNTRY_CODE":"US","ELEMENT_SET_NO":"999","OBJECT_TYPE":"PAYLOAD","SITE":"AFETR","REF_FRAME":"TEME","RCS_SIZE":"LARGE","LAUNCH_DATE":"2022-01-19","TLE_LINE1":"1 51132U 22005AE  23094.30272652  .00002749  00000-0  19068-3 0  9995","PERIOD":"95.437","DECAY_DATE":null,"EPHEMERIS_TYPE":"0","REV_AT_EPOCH":"6713","INCLINATION":"53.2167","CLASSIFICATION_TYPE":"U","TLE_LINE2":"2 51132  53.2167  64.2707 0001323  84.5810 275.5333 15.08849619 67135","MEAN_ELEMENT_THEORY":"SGP4","BSTAR":"0.00019068000000","TIME_SYSTEM":"UTC","GP_ID":"229465931","RA_OF_ASC_NODE":"64.2707","MEAN_MOTION_DOT":"0.00002749","FILE":"3879974","MEAN_ANOMALY":"275.5333","ARG_OF_PERICENTER":"84.5810","MEAN_MOTION":"15.08849619","OBJECT_NAME":"STARLINK-3393","PERIAPSIS":"538.801","APOAPSIS":"540.631"},{"MEAN_MOTION":"15.08835760","PERIAPSIS":"538.899","OBJECT_NAME":"STARLINK-3356","APOAPSIS":"540.618","RA_OF_ASC_NODE":"61.6447","MEAN_MOTION_DOT":"-0.00000522","FILE":"3880211","MEAN_ANOMALY":"259.4199","ARG_OF_PERICENTER":"100.6933","INCLINATION":"53.2161","CLASSIFICATION_TYPE":"U","MEAN_ELEMENT_THEORY":"SGP4","TLE_LINE2":"2 51133  53.2161  61.6447 0001242 100.6933 259.4199 15.08835760 67221","BSTAR":"-0.00001468900000","GP_ID":"229497039","TIME_SYSTEM":"UTC","DECAY_DATE":null,"EPHEMERIS_TYPE":"0","REV_AT_EPOCH":"6722","REF_FRAME":"TEME","RCS_SIZE":"LARGE","LAUNCH_DATE":"2022-01-19","TLE_LINE1":"1 51133U 22005AF  23094.88785194 -.00000522  00000-0 -14689-4 0  9993","PERIOD":"95.438","COUNTRY_CODE":"US","ELEMENT_SET_NO":"999","OBJECT_TYPE":"PAYLOAD","SITE":"AFETR","EPOCH":"2023-04-04T21:18:30.407616","CENTER_NAME":"EARTH","ECCENTRICITY":"0.00012420","MEAN_MOTION_DDOT":"0.0000000000000","SEMIMAJOR_AXIS":"6917.893","NORAD_CAT_ID":"51133","OBJECT_ID":"2022-005AF"},{"PERIOD":"95.437","TLE_LINE1":"1 51134U 22005AG  23094.26044265  .00003268  00000-0  22324-3 0  9995","RCS_SIZE":"LARGE","REF_FRAME":"TEME","LAUNCH_DATE":"2022-01-19","OBJECT_TYPE":"PAYLOAD","ELEMENT_SET_NO":"999","SITE":"AFETR","COUNTRY_CODE":"US","NORAD_CAT_ID":"51134","ECCENTRICITY":"0.00013810","EPOCH":"2023-04-04T06:15:02.244960","CENTER_NAME":"EARTH","SEMIMAJOR_AXIS":"6917.848","MEAN_MOTION_DDOT":"0.0000000000000","OBJECT_ID":"2022-005AG","OBJECT_NAME":"STARLINK-3183","PERIAPSIS":"538.758","APOAPSIS":"540.668","MEAN_MOTION":"15.08850577","FILE":"3879537","MEAN_ANOMALY":"267.1551","ARG_OF_PERICENTER":"92.9599","MEAN_MOTION_DOT":"0.00003268","RA_OF_ASC_NODE":"54.4645","BSTAR":"0.00022324000000","TIME_SYSTEM":"UTC","GP_ID":"229432810","INCLINATION":"53.2172","CLASSIFICATION_TYPE":"U","TLE_LINE2":"2 51134  53.2172  54.4645 0001381  92.9599 267.1551 15.08850577 68399","MEAN_ELEMENT_THEORY":"SGP4","EPHEMERIS_TYPE":"0","REV_AT_EPOCH":"6839","DECAY_DATE":null},{"OBJECT_ID":"2022-005AH","SEMIMAJOR_AXIS":"6917.825","MEAN_MOTION_DDOT":"0.0000000000000","ECCENTRICITY":"0.00010620","EPOCH":"2023-04-04T08:30:06.741216","CENTER_NAME":"EARTH","NORAD_CAT_ID":"51135","COUNTRY_CODE":"US","SITE":"AFETR","OBJECT_TYPE":"PAYLOAD","ELEMENT_SET_NO":"999","LAUNCH_DATE":"2022-01-19","RCS_SIZE":"LARGE","REF_FRAME":"TEME","PERIOD":"95.436","TLE_LINE1":"1 51135U 22005AH  23094.35424469  .00010648  00000-0  68574-3 0  9991","DECAY_DATE":null,"REV_AT_EPOCH":"6714","EPHEMERIS_TYPE":"0","MEAN_ELEMENT_THEORY":"SGP4","TLE_LINE2":"2 51135  53.2163  64.0400 0001062 100.9634 259.1477 15.08858200 67143","INCLINATION":"53.2163","CLASSIFICATION_TYPE":"U","TIME_SYSTEM":"UTC","GP_ID":"229465180","BSTAR":"0.00068574000000","MEAN_MOTION_DOT":"0.00010648","RA_OF_ASC_NODE":"64.0400","MEAN_ANOMALY":"259.1477","ARG_OF_PERICENTER":"100.9634","FILE":"3879974","MEAN_MOTION":"15.08858200","APOAPSIS":"540.424","OBJECT_NAME":"STARLINK-3363","PERIAPSIS":"538.955"},{"MEAN_MOTION":"15.08843797","APOAPSIS":"540.532","PERIAPSIS":"538.935","OBJECT_NAME":"STARLINK-3253","RA_OF_ASC_NODE":"61.6567","MEAN_MOTION_DOT":"0.00012888","MEAN_ANOMALY":"258.6007","ARG_OF_PERICENTER":"101.5115","FILE":"3880211","TLE_LINE2":"2 51136  53.2156  61.6567 0001154 101.5115 258.6007 15.08843797 67223","MEAN_ELEMENT_THEORY":"SGP4","CLASSIFICATION_TYPE":"U","INCLINATION":"53.2156","TIME_SYSTEM":"UTC","GP_ID":"229496289","BSTAR":"0.00082628000000","DECAY_DATE":null,"EPHEMERIS_TYPE":"0","REV_AT_EPOCH":"6722","LAUNCH_DATE":"2022-01-19","REF_FRAME":"TEME","RCS_SIZE":"LARGE","TLE_LINE1":"1 51136U 22005AJ  23094.88512848  .00012888  00000-0  82628-3 0  9993","PERIOD":"95.437","COUNTRY_CODE":"US","SITE":"AFETR","ELEMENT_SET_NO":"999","OBJECT_TYPE":"PAYLOAD","MEAN_MOTION_DDOT":"0.0000000000000","SEMIMAJOR_AXIS":"6917.869","CENTER_NAME":"EARTH","EPOCH":"2023-04-04T21:14:35.100672","ECCENTRICITY":"0.00011540","NORAD_CAT_ID":"51136","OBJECT_ID":"2022-005AJ"},{"OBJECT_ID":"2022-005AK","NORAD_CAT_ID":"51137","MEAN_MOTION_DDOT":"0.0000000000000","SEMIMAJOR_AXIS":"6917.905","CENTER_NAME":"EARTH","EPOCH":"2023-04-04T22:32:41.639712","ECCENTRICITY":"0.00010510","SITE":"AFETR","ELEMENT_SET_NO":"999","OBJECT_TYPE":"PAYLOAD","COUNTRY_CODE":"US","TLE_LINE1":"1 51137U 22005AK  23094.93937083  .00002055  00000-0  14722-3 0  9997","PERIOD":"95.438","LAUNCH_DATE":"2022-01-19","REF_FRAME":"TEME","RCS_SIZE":"LARGE","REV_AT_EPOCH":"6724","EPHEMERIS_TYPE":"0","DECAY_DATE":null,"GP_ID":"229497540","TIME_SYSTEM":"UTC","BSTAR":"0.00014722000000","MEAN_ELEMENT_THEORY":"SGP4","TLE_LINE2":"2 51137  53.2168  61.4108 0001051  98.6505 261.4607 15.08831929 67245","CLASSIFICATION_TYPE":"U","INCLINATION":"53.2168","MEAN_ANOMALY":"261.4607","ARG_OF_PERICENTER":"98.6505","FILE":"3880211","RA_OF_ASC_NODE":"61.4108","MEAN_MOTION_DOT":"0.00002055","APOAPSIS":"540.497","OBJECT_NAME":"STARLINK-3180","PERIAPSIS":"539.043","MEAN_MOTION":"15.08831929"},{"NORAD_CAT_ID":"51138","ECCENTRICITY":"0.00011530","CENTER_NAME":"EARTH","EPOCH":"2023-04-04T21:07:54.345504","SEMIMAJOR_AXIS":"6917.884","MEAN_MOTION_DDOT":"0.0000000000000","OBJECT_ID":"2022-005AL","PERIOD":"95.438","TLE_LINE1":"1 51138U 22005AL  23094.88049011 -.00000093  00000-0  12248-4 0  9990","RCS_SIZE":"LARGE","REF_FRAME":"TEME","LAUNCH_DATE":"2022-01-19","OBJECT_TYPE":"PAYLOAD","ELEMENT_SET_NO":"999","SITE":"AFETR","COUNTRY_CODE":"US","BSTAR":"0.00001224800000","GP_ID":"229471339","TIME_SYSTEM":"UTC","INCLINATION":"53.2165","CLASSIFICATION_TYPE":"U","TLE_LINE2":"2 51138  53.2165  61.6774 0001153 105.6240 254.4880 15.08838702 68345","MEAN_ELEMENT_THEORY":"SGP4","EPHEMERIS_TYPE":"0","REV_AT_EPOCH":"6834","DECAY_DATE":null,"PERIAPSIS":"538.952","OBJECT_NAME":"STARLINK-3177","APOAPSIS":"540.547","MEAN_MOTION":"15.08838702","FILE":"3880103","ARG_OF_PERICENTER":"105.6240","MEAN_ANOMALY":"254.4880","MEAN_MOTION_DOT":"-0.00000093","RA_OF_ASC_NODE":"61.6774"},{"BSTAR":"0.00041224000000","TIME_SYSTEM":"UTC","GP_ID":"229496539","CLASSIFICATION_TYPE":"U","INCLINATION":"53.2164","MEAN_ELEMENT_THEORY":"SGP4","TLE_LINE2":"2 51139  53.2164  61.4454 0001841  99.3620 260.7581 15.08841191 67245","EPHEMERIS_TYPE":"0","REV_AT_EPOCH":"6724","DECAY_DATE":null,"PERIAPSIS":"538.468","OBJECT_NAME":"STARLINK-3172","APOAPSIS":"541.015","MEAN_MOTION":"15.08841191","FILE":"3880211","ARG_OF_PERICENTER":"99.3620","MEAN_ANOMALY":"260.7581","MEAN_MOTION_DOT":"0.00006279","RA_OF_ASC_NODE":"61.4454","NORAD_CAT_ID":"51139","ECCENTRICITY":"0.00018410","EPOCH":"2023-04-04T22:22:06.896064","CENTER_NAME":"EARTH","SEMIMAJOR_AXIS":"6917.877","MEAN_MOTION_DDOT":"0.0000000000000","OBJECT_ID":"2022-005AM","PERIOD":"95.437","TLE_LINE1":"1 51139U 22005AM  23094.93202426  .00006279  00000-0  41224-3 0  9994","RCS_SIZE":"LARGE","REF_FRAME":"TEME","LAUNCH_DATE":"2022-01-19","OBJECT_TYPE":"PAYLOAD","ELEMENT_SET_NO":"999","SITE":"AFETR","COUNTRY_CODE":"US"}];
